OBJECT_NAME,OBJECT_ID,EPOCH,MEAN_MOTION,ECCENTRICITY,INCLINATION,RA_OF_ASC_NODE,ARG_OF_PERICENTER,MEAN_ANOMALY,EPHEMERIS_TYPE,CLASSIFICATION_TYPE,NORAD_CAT_ID,ELEMENT_SET_NO,REV_AT_EPOCH,BSTAR,MEAN_MOTION_DOT,MEAN_MOTION_DDOT
H-2A R/B,2006-002B,2026-07-17T12:04:25.564224,15.18467384,.00509508,98.2599,357.0884,158.2451,202.0961,0,U,28932,999,11412,.20817792E-3,.4353E-4,0
RESURS-DK 1,2006-021A,2026-07-17T13:46:23.212128,15.13323561,.00072386,69.9305,260.8870,268.3876,91.6461,0,U,29228,999,10717,.53921972E-4,.854E-5,0
CZ-4B R/B,2006-046C,2026-07-17T13:51:23.436576,15.17991987,.00328259,97.5433,243.0915,173.9195,186.2444,0,U,29507,999,7974,.9897072E-4,.1968E-4,0
CZ-2C R/B,2007-010B,2026-07-17T05:05:03.261984,14.20282135,.00577497,98.4121,305.0976,277.7894,81.6729,0,U,31114,999,99810,.37912716E-4,.41E-6,0
COSMO-SKYMED 1,2007-023A,2026-07-17T14:40:17.852736,14.97226609,.00016205,97.8848,30.7247,101.4801,258.6603,0,U,31598,999,3434,.13444576E-3,.1496E-4,0
COSMOS 2428,2007-029A,2026-07-17T05:33:58.805568,14.12935758,.00072372,70.9382,291.3952,77.2015,282.9915,0,U,31792,999,98239,.17248278E-3,.274E-5,0
SL-16 R/B,2007-029B,2026-07-17T14:24:51.014016,14.14853002,.00019238,70.9743,259.2962,256.9207,263.7130,0,U,31793,999,98374,.1617515E-3,.264E-5,0
KORONAS-FOTON,2009-003A,2026-07-17T13:31:11.400960,15.46335783,.00119738,82.4311,140.5591,55.1586,305.0787,0,U,33504,999,96579,.14758826E-3,.7339E-4,0
CZ-2C R/B,2011-030B,2026-07-17T09:12:35.752032,14.81534624,.00507357,97.8671,153.2295,288.8399,224.4489,0,U,37731,999,80929,.60880047E-4,.432E-5,0
H-2A R/B,2012-025E,2026-07-17T09:26:32.014176,14.95840445,.00425985,98.4847,176.0356,247.6385,112.0317,0,U,38341,999,76760,.60261809E-4,.613E-5,0
SHIJIAN-16 (SJ-16),2013-057A,2026-07-17T14:27:01.006272,14.92674128,.00156974,74.9743,299.0756,158.9923,201.1914,0,U,39358,999,69088,.40062374E-4,.384E-5,0
SL-4 R/B,2014-021B,2026-07-17T15:33:14.348736,15.42511901,.00895572,51.6063,61.4777,217.5115,141.9600,0,U,39679,999,67631,.11145472E-3,.5204E-4,0
ALOS-2,2014-029A,2026-07-17T13:46:29.948736,14.79472629,.00016223,97.9234,295.3036,91.8017,268.3380,0,U,39766,999,65607,.17932455E-3,.1288E-4,0
YAOGAN-29,2015-069A,2026-07-17T14:32:09.798144,14.83106854,.00005782,98.0013,227.2850,7.1192,353.0030,0,U,41038,999,57513,-.17764856E-4,-.199E-5,0
ASTRO-H (HITOMI),2016-012A,2026-07-17T08:43:53.120064,15.10637618,.0009629,30.9978,239.2794,197.2655,162.7656,0,U,41337,999,57185,.66169323E-4,.1218E-4,0
HXMT (HUIYAN),2017-034A,2026-07-17T15:40:54.883200,15.18700596,.00319956,43.0153,13.3671,336.1296,23.8068,0,U,42758,999,50229,.10450314E-3,.1988E-4,0
SAOCOM 1A,2018-076A,2026-07-17T13:59:58.302816,14.82146481,.00014308,97.8882,24.8898,85.7641,274.3736,0,U,43641,999,42060,-.4795454E-4,-.434E-5,0
H-2A R/B,2018-084L,2026-07-17T14:50:11.843232,15.46259385,.00203807,98.8523,84.1810,291.4304,68.4767,0,U,43682,999,42582,.222029E-3,.10892E-3,0
SAOCOM 1B,2020-059A,2026-07-17T16:22:06.199680,14.82144152,.0001456,97.8894,24.0838,89.7905,270.3475,0,U,46265,999,31800,.27766E-4,.169E-5,0
CSS (TIANHE),2021-035A,2026-07-17T12:32:16.126368,15.58143309,.00019213,41.4691,137.7269,301.5742,58.4908,0,U,48274,999,29790,.18813159E-4,.1129E-4,0
COSMOS 2550,2021-056A,2026-07-17T14:33:40.507776,15.33841874,.00085388,67.1438,7.8880,269.9996,90.0180,0,U,48865,999,28338,.87772392E-4,.2698E-4,0
CZ-2C R/B,2022-058K,2026-07-17T14:39:05.699232,15.63983074,.00301944,50.1854,4.9558,32.7835,327.5006,0,U,52794,999,23040,.25609789E-3,.24771E-3,0
CZ-2C R/B,2022-132E,2026-07-17T11:44:27.195360,15.75198055,.00090161,97.2889,206.9509,331.5570,28.5202,0,U,54039,999,21071,.29118436E-3,.43644E-3,0
GSLV R/B,2022-138AN,2026-07-17T06:12:13.700160,14.97388132,.00233024,87.3816,122.8866,45.4523,314.8607,0,U,54149,999,20331,.12172183E-3,.1451E-4,0
XRISM,2023-137A,2026-07-17T08:20:56.538240,15.12678735,.00078619,31.0010,164.1948,267.6275,92.3463,0,U,57800,999,15743,.12172564E-3,.2282E-4,0
ACS3,2024-077B,2026-07-17T11:27:20.662272,13.95305002,.01279818,97.1754,110.5556,34.1784,326.7540,0,U,59588,999,11226,.6055996E-2,.8754E-4,0
SPACEMOBILE-003,2024-163A,2026-07-17T07:35:40.667424,15.20711173,.00045565,52.9669,170.8888,200.3744,159.7069,0,U,61045,999,10235,.67586399E-4,.1179E-4,0
SPACEMOBILE-005,2024-163B,2026-07-17T15:05:00.591648,15.20721282,.00085847,52.9759,169.4054,203.1415,156.9194,0,U,61046,999,10239,.87600417E-4,.1625E-4,0
SPACEMOBILE-001,2024-163C,2026-07-17T00:50:50.309664,15.20743460,.00070937,52.9725,171.8417,199.2363,160.8365,0,U,61047,999,10230,.21220399E-4,.145E-5,0
SPACEMOBILE-002,2024-163D,2026-07-17T14:39:19.927584,15.20722997,.00052469,52.9787,169.2355,198.0550,162.0259,0,U,61048,999,10239,-.32794804E-3,-.7627E-4,0
