H-2A R/B                
1 28932U 06002B   26198.50307366  .00004353  00000+0  20818-3 0  9994
2 28932  98.2599 357.0884 0050950 158.2451 202.0961 15.18467384114124
RESURS-DK 1             
1 29228U 06021A   26198.57387977  .00000854  00000+0  53922-4 0  9992
2 29228  69.9305 260.8870 0007238 268.3876  91.6461 15.13323561107171
CZ-4B R/B               
1 29507U 06046C   26198.57735459  .00001968  00000+0  98971-4 0  9991
2 29507  97.5433 243.0915 0032825 173.9195 186.2444 15.17991987 79748
CZ-2C R/B               
1 31114U 07010B   26198.21184331  .00000041  00000+0  37913-4 0  9998
2 31114  98.4121 305.0976 0057749 277.7894  81.6729 14.20282135998101
COSMO-SKYMED 1          
1 31598U 07023A   26198.61131774  .00001496  00000+0  13445-3 0  9993
2 31598  97.8848  30.7247 0001620 101.4801 258.6603 14.97226609 34349
COSMOS 2428             
1 31792U 07029A   26198.23193062  .00000274  00000+0  17248-3 0  9999
2 31792  70.9382 291.3952 0007237  77.2015 282.9915 14.12935758982397
SL-16 R/B               
1 31793U 07029B   26198.60059044  .00000264  00000+0  16175-3 0  9999
2 31793  70.9743 259.2962 0001923 256.9207 263.7130 14.14853002983747
KORONAS-FOTON           
1 33504U 09003A   26198.56332640  .00007339  00000+0  14759-3 0  9992
2 33504  82.4311 140.5591 0011973  55.1586 305.0787 15.46335783965793
CZ-2C R/B               
1 37731U 11030B   26198.38374713  .00000432  00000+0  60880-4 0  9992
2 37731  97.8671 153.2295 0050735 288.8399 224.4489 14.81534624809294
H-2A R/B                
1 38341U 12025E   26198.39342609  .00000613  00000+0  60262-4 0  9990
2 38341  98.4847 176.0356 0042598 247.6385 112.0317 14.95840445767607
SHIJIAN-16 (SJ-16)      
1 39358U 13057A   26198.60209498  .00000384  00000+0  40062-4 0  9998
2 39358  74.9743 299.0756 0015697 158.9923 201.1914 14.92674128690880
SL-4 R/B                
1 39679U 14021B   26198.64808274  .00005204  00000+0  11145-3 0  9992
2 39679  51.6063  61.4777 0089557 217.5115 141.9600 15.42511901676318
ALOS-2                  
1 39766U 14029A   26198.57395774  .00001288  00000+0  17932-3 0  9993
2 39766  97.9234 295.3036 0001622  91.8017 268.3380 14.79472629656077
YAOGAN-29               
1 41038U 15069A   26198.60566896 -.00000199  00000+0 -17765-4 0  9999
2 41038  98.0013 227.2850 0000578   7.1192 353.0030 14.83106854575130
ASTRO-H (HITOMI)        
1 41337U 16012A   26198.36380926  .00001218  00000+0  66169-4 0  9994
2 41337  30.9978 239.2794 0009629 197.2655 162.7656 15.10637618571850
HXMT (HUIYAN)           
1 42758U 17034A   26198.65341300  .00001988  00000+0  10450-3 0  9997
2 42758  43.0153  13.3671 0031995 336.1296  23.8068 15.18700596502299
SAOCOM 1A               
1 43641U 18076A   26198.58331369 -.00000434  00000+0 -47955-4 0  9990
2 43641  97.8882  24.8898 0001430  85.7641 274.3736 14.82146481420603
H-2A R/B                
1 43682U 18084L   26198.61819263  .00010892  00000+0  22203-3 0  9997
2 43682  98.8523  84.1810 0020380 291.4304  68.4767 15.46259385425825
SAOCOM 1B               
1 46265U 20059A   26198.68201620  .00000169  00000+0  27766-4 0  9997
2 46265  97.8894  24.0838 0001456  89.7905 270.3475 14.82144152318001
CSS (TIANHE)            
1 48274U 21035A   26198.52240887  .00001129  00000+0  18813-4 0  9995
2 48274  41.4691 137.7269 0001921 301.5742  58.4908 15.58143309297902
COSMOS 2550             
1 48865U 21056A   26198.60671884  .00002698  00000+0  87772-4 0  9990
2 48865  67.1438   7.8880 0008538 269.9996  90.0180 15.33841874283383
CZ-2C R/B               
1 52794U 22058K   26198.61048263  .00024771  00000+0  25610-3 0  9997
2 52794  50.1854   4.9558 0030194  32.7835 327.5006 15.63983074230406
CZ-2C R/B               
1 54039U 22132E   26198.48920365  .00043644  00000+0  29118-3 0  9998
2 54039  97.2889 206.9509 0009016 331.5570  28.5202 15.75198055210713
GSLV R/B                
1 54149U 22138AN  26198.25849190  .00001451  00000+0  12172-3 0  9999
2 54149  87.3816 122.8866 0023302  45.4523 314.8607 14.97388132203318
XRISM                   
1 57800U 23137A   26198.34787660  .00002282  00000+0  12173-3 0  9993
2 57800  31.0010 164.1948 0007861 267.6275  92.3463 15.12678735157439
ACS3                    
1 59588U 24077B   26198.47732248  .00008754  00000+0  60560-2 0  9990
2 59588  97.1754 110.5556 0127981  34.1784 326.7540 13.95305002112265
SPACEMOBILE-003         
1 61045U 24163A   26198.31644291  .00001179  00000+0  67586-4 0  9991
2 61045  52.9669 170.8888 0004556 200.3744 159.7069 15.20711173102351
SPACEMOBILE-005         
1 61046U 24163B   26198.62847907  .00001625  00000+0  87600-4 0  9990
2 61046  52.9759 169.4054 0008584 203.1415 156.9194 15.20721282102396
SPACEMOBILE-001         
1 61047U 24163C   26198.03530451  .00000145  00000+0  21220-4 0  9991
2 61047  52.9725 171.8417 0007093 199.2363 160.8365 15.20743460102308
SPACEMOBILE-002         
1 61048U 24163D   26198.61064731 -.00007627  00000+0 -32795-3 0  9991
2 61048  52.9787 169.2355 0005246 198.0550 162.0259 15.20722997102399
